{
  "satellites": [
  {
    "name": "SL-14 R/B",
    "tleLine1": "1 17912U 87038B   25105.85666952  .00001265  00000+0  14520-3 0  9994",
    "tleLine2": "2 17912  82.5007 245.4796 0019861 163.7655 196.4201 14.84964206 30571"
  },
  {
    "name": "COSMOS 1844",
    "tleLine1": "1 17973U 87041A   25106.12215103  .00000201  00000+0  12948-3 0  9995",
    "tleLine2": "2 17973  70.9006   5.0481 0030346 158.0794 202.1633 14.14462878957462"
  },
  {
    "name": "SL-14 R/B",
    "tleLine1": "1 18153U 87055B   25105.95801841  .00000966  00000+0  10950-3 0  9990",
    "tleLine2": "2 18153  82.4965 297.8414 0021281  21.0694 339.1394 14.85224443 21287"
  },
  {
    "name": "COSMOS 1867",
    "tleLine1": "1 18187U 87060A   25105.85289422  .00000030  00000+0  48925-4 0  9993",
    "tleLine2": "2 18187  65.0091 144.7585 0017251 258.1120 101.8030 14.31440104973001"
  },
  {
    "name": "COSMOS 1892",
    "tleLine1": "1 18421U 87088A   25106.02728107  .00059315  00000+0  77438-3 0  9992",
    "tleLine2": "2 18421  82.4797 304.6687 0005736 353.5986   6.5195 15.58425754 53638"
  },
  {
    "name": "SL-14 R/B",
    "tleLine1": "1 18749U 88001B   25105.59480149  .00000845  00000+0  95860-4 0  9997",
    "tleLine2": "2 18749  82.5122 143.9179 0016753 240.7185 119.2357 14.85129746993314"
  },
  {
    "name": "COSMOS 1933",
    "tleLine1": "1 18958U 88020A   25105.87811286  .00007252  00000+0  38890-3 0  9999",
    "tleLine2": "2 18958  82.5169 214.3409 0003320 247.0393 113.0489 15.14817766   555"
  },
  {
    "name": "SL-3 R/B",
    "tleLine1": "1 19046U 88032B   25105.92987980  .00008488  00000+0  44276-3 0  9999",
    "tleLine2": "2 19046  97.4847  87.2702 0026423 295.4878  64.3622 15.15892535  2398"
  },
  {
    "name": "SL-16 R/B",
    "tleLine1": "1 19120U 88039B   25105.96835812  .00000017  00000+0  30515-4 0  9991",
    "tleLine2": "2 19120  71.0162  41.4710 0020010 126.5287 233.7684 14.19550558911875"
  },
  {
    "name": "COSMOS 1953",
    "tleLine1": "1 19210U 88050A   25106.54181672  .00014403  00000+0  60879-3 0  9996",
    "tleLine2": "2 19210  82.5070 125.8767 0012553 185.5520 174.5579 15.23044042  9041"
  },
  {
    "name": "SL-8 R/B",
    "tleLine1": "1 19257U 88053B   25105.94911656  .00000538  00000+0  18373-3 0  9992",
    "tleLine2": "2 19257  74.0496 356.4412 0021188 258.3185 112.1930 14.38686514929466"
  },
  {
    "name": "COSMOS 1975",
    "tleLine1": "1 19573U 88093A   25106.01249333  .00013032  00000+0  56773-3 0  9991",
    "tleLine2": "2 19573  82.5207  84.9123 0011078 239.9609 120.0528 15.22034614990647"
  },
  {
    "name": "SL-14 R/B",
    "tleLine1": "1 19574U 88093B   25105.93953332  .00000998  00000+0  11302-3 0  9999",
    "tleLine2": "2 19574  82.5334 349.5945 0021962  45.6004 324.9884 14.85260284952386"
  },
  {
    "name": "SL-16 R/B",
    "tleLine1": "1 19650U 88102B   25106.43444631  .00000313  00000+0  18247-3 0  9994",
    "tleLine2": "2 19650  70.9968 120.0398 0013330 157.5910 202.5798 14.16093048880840"
  },
  {
    "name": "INTERCOSMOS 24",
    "tleLine1": "1 20261U 89080A   25106.06132814  .00000965  00000+0  28478-3 0  9996",
    "tleLine2": "2 20261  82.6046 317.4636 1190388 332.7815  21.5382 12.58946883625152"
  },
  {
    "name": "SL-14 R/B",
    "tleLine1": "1 20262U 89080C   25105.80279751  .00000390  00000+0  11573-3 0  9990",
    "tleLine2": "2 20262  82.5987  23.7127 1230645 214.0917 137.4895 12.50260790619173"
  },
  {
    "name": "DELTA 1 R/B",
    "tleLine1": "1 20323U 89089B   25105.94753500  .00000864  00000+0  22324-3 0  9993",
    "tleLine2": "2 20323  97.1115 359.8882 0070941  77.8790 283.0344 14.50331473848227"
  },
  {
    "name": "ARIANE 40 R/B",
    "tleLine1": "1 20443U 90005H   25105.92160846  .00000721  00000+0  24448-3 0  9990",
    "tleLine2": "2 20443  98.3504 170.4925 0011439 109.4343 250.8082 14.39583601845646"
  },
  {
    "name": "DELTA 2 R/B(1)",
    "tleLine1": "1 20453U 90008B   25105.32978452  .00028316  00000+0  69479-3 0  9991",
    "tleLine2": "2 20453  35.6106 118.6740 0148090 161.0455 199.5861 15.29149371875481"
  },
  {
    "name": "COSMOS 2058",
    "tleLine1": "1 20465U 90010A   25105.77002024  .00006114  00000+0  39077-3 0  9992",
    "tleLine2": "2 20465  82.4889   9.4698 0011862  17.3050 342.8580 15.08409885892768"
  },
  {
    "name": "SL-14 R/B",
    "tleLine1": "1 20466U 90010B   25106.39286962  .00001086  00000+0  12986-3 0  9990",
    "tleLine2": "2 20466  82.5048 214.6667 0018585 300.6282  59.3099 14.83196228901028"
  },
  {
    "name": "SL-14 R/B",
    "tleLine1": "1 20511U 90018B   25105.89452752  .00000851  00000+0  10466-3 0  9995",
    "tleLine2": "2 20511  82.5232 169.4032 0017953  90.8165 269.5106 14.81783113874030"
  },
  {
    "name": "HST",
    "tleLine1": "1 20580U 90037B   25105.28464328  .00009419  00000+0  36439-3 0  9994",
    "tleLine2": "2 20580  28.4666 111.0506 0002268 121.3580 238.7237 15.24445431723075"
  },
  {
    "name": "SL-16 R/B",
    "tleLine1": "1 20625U 90046B   25105.89251716  .00000175  00000+0  11509-3 0  9997",
    "tleLine2": "2 20625  70.9985 266.3060 0012020  81.4819 278.7665 14.14959172802020"
  },
  {
    "name": "COSMOS 2084",
    "tleLine1": "1 20663U 90055A   25105.95845507  .00005441  00000+0  39382-3 0  9993",
    "tleLine2": "2 20663  62.7928  11.2207 0070768 148.1665 212.3742 15.03180480887010"
  },
  {
    "name": "SL-6 R/B(2)",
    "tleLine1": "1 20666U 90055D   25105.94759312  .00004999  00000+0  39237-3 0  9999",
    "tleLine2": "2 20666  62.7838 286.6311 0036844 179.0646 181.0529 15.01668203888418"
  },
  {
    "name": "SL-8 R/B",
    "tleLine1": "1 20775U 90078B   25105.92556812  .00023653  00000+0  79544-3 0  9996",
    "tleLine2": "2 20775  82.9113 182.9603 0409430  26.0077 336.1086 14.76604083760748"
  },
  {
    "name": "SL-8 R/B",
    "tleLine1": "1 21088U 91006B   25106.40318890  .00000106  00000+0  91044-4 0  9990",
    "tleLine2": "2 21088  82.9433  53.5110 0021286 229.8980 249.0491 13.77445400719283"
  },
  {
    "name": "OKEAN-3",
    "tleLine1": "1 21397U 91039A   25106.43434524  .00005909  00000+0  44423-3 0  9999",
    "tleLine2": "2 21397  82.5145 293.2618 0014794  10.3772 349.7756 15.02321707836944"
  },
  {
    "name": "COSMOS 2151",
    "tleLine1": "1 21422U 91042A   25105.85957940  .00003849  00000+0  31846-3 0  9995",
    "tleLine2": "2 21422  82.5001  39.4279 0014560  87.2956 272.9934 14.98572933814073"
  },
  {
    "name": "SL-14 R/B",
    "tleLine1": "1 21423U 91042B   25105.88028525  .00000794  00000+0  98289-4 0  9998",
    "tleLine2": "2 21423  82.4947 167.5182 0015840 235.1186 124.8539 14.81484492804539"
  },
  {
    "name": "ERS-1",
    "tleLine1": "1 21574U 91050A   25105.91734644  .00000694  00000+0  23747-3 0  9999",
    "tleLine2": "2 21574  98.7937 110.8670 0033377  94.3248 266.1754 14.39141192768580"
  },
  {
    "name": "ARIANE 40 R/B",
    "tleLine1": "1 21610U 91050F   25105.91443071  .00000794  00000+0  25199-3 0  9995",
    "tleLine2": "2 21610  98.2449 164.5930 0002956  13.2614 346.8654 14.42575294771739"
  },
  {
    "name": "INTERCOSMOS 25",
    "tleLine1": "1 21819U 91086A   25106.10739087  .00002529  00000+0  48965-3 0  9996",
    "tleLine2": "2 21819  82.6019 147.9065 1492990 102.5133 274.6542 12.10742678457048"
  },
  {
    "name": "SL-8 R/B",
    "tleLine1": "1 21876U 92008B   25105.85773951  .00000166  00000+0  15513-3 0  9991",
    "tleLine2": "2 21876  82.9269 151.5853 0033883 332.6006 200.9876 13.75916845664338"
  },
  {
    "name": "SL-8 R/B",
    "tleLine1": "1 21938U 92020B   25105.92390685  .00000111  00000+0  99424-4 0  9995",
    "tleLine2": "2 21938  82.9334  37.1819 0030050 130.7779 297.3168 13.75494794656078"
  },
  {
    "name": "USA 81",
    "tleLine1": "1 21949U 92023A   25105.86830880  .00000339  00000+0  11842-3 0  9998",
    "tleLine2": "2 21949  85.0064 320.5547 0002115  67.2562 292.8854 14.32217660 47868"
  },
  {
    "name": "COSMOS 2219",
    "tleLine1": "1 22219U 92076A   25105.92366192  .00000079  00000+0  66055-4 0  9992",
    "tleLine2": "2 22219  71.0609 343.2112 0018623 334.9482  25.0735 14.14010440672040"
  },
  {
    "name": "SL-16 R/B",
    "tleLine1": "1 22220U 92076B   25105.91617421  .00000220  00000+0  13383-3 0  9990",
    "tleLine2": "2 22220  70.9995 158.7898 0014808 239.7875 293.5010 14.16796437675733"
  },
  {
    "name": "COSMOS 2221",
    "tleLine1": "1 22236U 92080A   25105.81882931  .00004237  00000+0  38857-3 0  9996",
    "tleLine2": "2 22236  82.5057 232.6329 0014310 208.4945 151.5496 14.94600680731798"
  },
  {
    "name": "SL-16 R/B",
    "tleLine1": "1 22285U 92093B   25105.89316476  .00000077  00000+0  64058-4 0  9999",
    "tleLine2": "2 22285  71.0222 332.3648 0002127  87.8315 272.3052 14.15383108666775"
  },
  {
    "name": "COSMOS 2228",
    "tleLine1": "1 22286U 92094A   25105.83265100  .00004242  00000+0  38050-3 0  9992",
    "tleLine2": "2 22286  82.5207 190.7389 0017537 329.0709  30.9478 14.95430201748106"
  },
  {
    "name": "SL-16 R/B",
    "tleLine1": "1 22566U 93016B   25105.97200526  .00000287  00000+0  17196-3 0  9997",
    "tleLine2": "2 22566  71.0075 183.4542 0008266 106.2626 253.9406 14.15250785655817"
  },
  {
    "name": "COSMOS 2242",
    "tleLine1": "1 22626U 93024A   25105.82035578  .00003877  00000+0  35264-3 0  9994",
    "tleLine2": "2 22626  82.5217 219.8155 0015834 331.5682  28.4674 14.94884584731383"
  },
  {
    "name": "SL-16 R/B",
    "tleLine1": "1 22803U 93059B   25105.90153999  .00000331  00000+0  18752-3 0  9991",
    "tleLine2": "2 22803  70.9920 342.3320 0017649 342.6687  17.3832 14.17163907633357"
  },
  {
    "name": "ARIANE 40 R/B",
    "tleLine1": "1 22830U 93061H   25105.81590895  .00000560  00000+0  22205-3 0  9996",
    "tleLine2": "2 22830  98.5301 175.3747 0011113 168.2905 191.8540 14.32619396647150"
  },
  {
    "name": "COSMOS 2278",
    "tleLine1": "1 23087U 94023A   25105.85252408  .00000361  00000+0  21348-3 0  9995",
    "tleLine2": "2 23087  71.0510 140.9458 0008954 182.5869 177.5209 14.14279788598455"
  }
  ]
}